OBJECT_NAME,OBJECT_ID,EPOCH,MEAN_MOTION,ECCENTRICITY,INCLINATION,RA_OF_ASC_NODE,ARG_OF_PERICENTER,MEAN_ANOMALY,EPHEMERIS_TYPE,CLASSIFICATION_TYPE,NORAD_CAT_ID,ELEMENT_SET_NO,REV_AT_EPOCH,BSTAR,MEAN_MOTION_DOT,MEAN_MOTION_DDOT
LUCH 5A (SDCM/PRN 140),2011-074B,2026-07-21T10:26:53.331072,1.00274538,.00028464,8.8385,73.3022,60.8161,128.8299,0,U,37951,999,5339,0,-.54E-6,0
BEIDOU-2 G5 (C05),2012-008A,2026-07-21T15:04:13.837152,1.00272736,.00071714,3.6578,69.4821,271.0245,243.5938,0,U,38091,999,5271,0,.56E-6,0
BEIDOU-2 M3 (C11),2012-018A,2026-07-20T11:31:22.623744,1.86229649,.0021072,55.7268,303.7525,272.1395,87.6505,0,U,38250,999,9656,0,-.102E-5,0
BEIDOU-2 M4 (C12),2012-018B,2026-07-19T21:00:44.744832,1.86229306,.00122384,55.6273,302.9841,272.0265,87.8661,0,U,38251,999,9655,0,-.99E-6,0
SES-5 (EGNOS/PRN 136),2012-036A,2026-07-21T14:48:56.046240,1.00272397,.0002075,0.0452,318.7186,159.8858,47.9782,0,U,38652,999,4480,0,.36E-6,0
BEIDOU-2 M6 (C14),2012-050B,2026-07-20T02:55:43.188960,1.86230986,.00127267,56.5733,61.8055,2.2324,357.8361,0,U,38775,999,9392,0,-.77E-6,0
GSAT-10 (GAGAN/PRN 128),2012-051B,2026-07-21T15:11:13.165728,1.00272679,.00076207,0.0745,263.6320,192.3187,154.2549,0,U,38779,999,5044,0,-.163E-5,0
GPS BIIF-3  (PRN 24),2012-053A,2026-07-21T05:14:54.394368,2.00568090,.01824077,53.5902,142.2050,66.3332,295.5491,0,U,38833,999,10012,0,.14E-6,0
GSAT0103 (GALILEO-FM3),2012-055A,2026-07-19T03:38:04.424640,1.70473478,.0003622,55.8248,100.6680,312.6356,47.3724,0,U,38857,999,8555,0,-.35E-6,0
BEIDOU-2 G6 (C02),2012-059A,2026-07-21T15:11:28.143168,1.00273137,.00089541,4.5067,73.1510,328.7589,209.3728,0,U,38953,999,5025,0,-.177E-5,0
LUCH 5B (SDCM/PRN 125),2012-061A,2026-07-21T09:34:44.254848,1.00271106,.0003896,10.5558,49.5380,142.5717,234.4338,0,U,38977,999,4995,0,-.143E-5,0
COSMOS 2485 (747),2013-019A,2026-07-20T05:27:30.719232,2.13103050,.00225577,65.4381,72.4960,230.6909,129.1761,0,U,39155,999,10298,0,-.49E-6,0
GPS BIIF-4  (PRN 27),2013-023A,2026-07-20T02:08:43.829088,2.00563399,.0141392,54.4792,267.6316,51.1093,310.2110,0,U,39166,999,9654,0,-.38E-6,0
IRNSS-1A,2013-034A,2026-07-21T04:47:08.434752,1.00271492,.00186752,35.7933,63.3827,179.4943,182.8995,0,U,39199,999,4771,0,.51E-6,0
GPS BIIF-5  (PRN 30),2014-008A,2026-07-20T02:11:25.103328,2.00561932,.008405,53.6581,147.9776,231.5729,127.6475,0,U,39533,999,9034,0,.31E-6,0
ASTRA 5B (EGNOS/PRN 123),2014-011B,2026-07-21T14:54:10.543968,1.00271824,.00021726,0.0637,310.8625,176.5673,58.9312,0,U,39617,999,4501,0,.139E-5,0
COSMOS 2492 (754),2014-012A,2026-07-20T04:28:16.369248,2.13103109,.00103044,65.2760,312.8143,316.7836,43.1566,0,U,39620,999,9594,0,-.83E-6,0
IRNSS-1B,2014-017A,2026-07-21T04:47:08.434752,1.00267488,.00213598,28.8748,239.8183,191.2399,354.8007,0,U,39635,999,4513,0,.135E-5,0
LUCH 5V (SDCM/PRN 141),2014-023A,2026-07-21T15:14:27.855168,1.00271869,.00022409,5.2161,69.3868,79.1395,114.2256,0,U,39727,999,4470,0,-.271E-5,0
GPS BIIF-6  (PRN 06),2014-026A,2026-07-21T08:45:06.920352,2.00558571,.00381834,56.4797,330.1873,325.5925,34.1656,0,U,39741,999,8922,0,-.11E-5,0
COSMOS 2500 (755),2014-032A,2026-07-20T19:47:50.445888,2.13105824,.00084981,65.2108,312.5368,191.5503,168.4514,0,U,40001,999,9417,0,-.86E-6,0
GPS BIIF-7  (PRN 09),2014-045A,2026-07-20T22:59:04.085952,2.00560707,.00346564,55.3751,87.1193,118.4770,241.9232,0,U,40105,999,8675,0,-.61E-6,0
GSAT0201 (GALILEO 5),2014-050A,2026-07-20T20:00:57.802176,1.85519911,.16792862,48.8385,272.0546,180.7098,179.0701,0,U,40128,999,7894,0,-.62E-6,0
GSAT0202 (GALILEO 6),2014-050B,2026-07-21T15:04:54.669792,1.85520496,.16806659,48.8552,271.1079,181.4563,178.0378,0,U,40129,999,8112,0,-.55E-6,0
IRNSS-1C,2014-061A,2026-07-20T16:56:40.720704,1.00271443,.00219392,6.5999,88.2929,6.0783,181.3257,0,U,40269,999,4302,0,-.167E-5,0
GPS BIIF-8  (PRN 03),2014-068A,2026-07-21T07:47:42.510048,2.00553678,.00674619,57.0112,29.6409,72.4647,288.3087,0,U,40294,999,8589,0,-.84E-6,0
COSMOS 2501 (702K),2014-075A,2026-07-21T13:21:28.563840,2.13101380,.0022596,63.6189,189.1825,212.4587,147.4043,0,U,40315,999,9058,0,.9E-6,0
GPS BIIF-9  (PRN 26),2015-013A,2026-07-20T23:12:44.735616,2.00574219,.01103224,53.1254,202.7533,40.4930,320.3352,0,U,40534,999,8250,0,.74E-6,0
GSAT0203 (GALILEO 7),2015-017A,2026-07-20T15:33:08.112384,1.70476362,.00028046,56.7747,340.6846,253.6910,106.2721,0,U,40544,999,6977,0,-.108E-5,0
GSAT0204 (GALILEO 8),2015-017B,2026-07-20T07:36:55.747296,1.70475832,.0002939,56.7823,340.7123,234.3577,125.6085,0,U,40545,999,3281,0,-.108E-5,0
